     2.10           G: GLONASS NAV DATA                     RINEX VERSION / TYPE
teqc  2015Jun23                         20220412 01:29:57UTCPGM / RUN BY / DATE
Linux 2.4.21-27.ELsmp|Opteron|gcc -static|Linux x86_64|=+   COMMENT
  2022     3    23    0.000000000000D+00                    CORR TO SYSTEM TIME
                                                            END OF HEADER
17 22  3 24  2 15  0.0 5.119666457176D-04 2.728484105319D-12 7.200000000000D+03
   -2.270030859375D+04 9.602975845337D-01-1.862645149231D-09 0.000000000000D+00
    9.211968750000D+03-2.967338562012D-01-1.862645149231D-09 4.000000000000D+00
    7.170110839844D+03 3.422205924988D+00 0.000000000000D+00 0.000000000000D+00
15 22  3 24  2 15  0.0 9.733438491821D-05-0.000000000000D+00 7.260000000000D+03
   -6.535706542969D+03-2.731196403503D+00-1.862645149231D-09 0.000000000000D+00
    8.962258789062D+03-1.554210662842D+00-1.862645149231D-09 0.000000000000D+00
    2.298377929688D+04-1.706047058105D-01-1.862645149231D-09 0.000000000000D+00
19 22  3 24  2 15  0.0-1.826947554946D-04-9.094947017729D-13 8.850000000000D+03
   -5.416021972656D+03-2.499570846558D+00 1.862645149231D-09 0.000000000000D+00
    1.338784716797D+04 1.443863868713D+00 9.313225746155D-10 3.000000000000D+00
   -2.102485156250D+04 1.563573837280D+00 9.313225746155D-10 0.000000000000D+00
19 22  3 24  2 45  0.0-1.826966181397D-04-9.094947017729D-13 9.000000000000D+03
   -9.356024414062D+03-1.852592468262D+00 9.313225746155D-10 0.000000000000D+00
    1.609705273438D+04 1.522722244263D+00 0.000000000000D+00 3.000000000000D+00
   -1.743397119141D+04 2.400404930115D+00 9.313225746155D-10 0.000000000000D+00
 5 22  3 24  2 45  0.0 8.991546928883D-05 9.094947017729D-13 9.000000000000D+03
    2.178667968750D+03 1.462888717651D-01 1.862645149231D-09 0.000000000000D+00
    2.531631298828D+04-3.080787658691D-01-0.000000000000D+00 1.000000000000D+00
   -2.081653808594D+03-3.568174362183D+00-9.313225746155D-10 0.000000000000D+00
 4 22  3 24  2 45  0.0 1.333309337497D-04 1.818989403546D-12 9.000000000000D+03
   -5.922043945312D+03-1.814708709717D-01 1.862645149231D-09 0.000000000000D+00
    1.771098242188D+04-2.378635406494D+00 0.000000000000D+00 6.000000000000D+00
   -1.733851220703D+04-2.364009857178D+00 9.313225746155D-10 0.000000000000D+00
17 22  3 24  2 45  0.0 5.119722336531D-04 2.728484105319D-12 9.000000000000D+03
   -2.042340478516D+04 1.529331207275D+00-2.793967723846D-09 0.000000000000D+00
    8.131179687500D+03-9.230556488037D-01-9.313225746155D-10 4.000000000000D+00
    1.297400781250D+04 2.984780311584D+00 0.000000000000D+00 0.000000000000D+00
18 22  3 24  2 45  0.0 1.112716272473D-04 0.000000000000D+00 9.000000000000D+03
   -1.923237695312D+04-2.417449951172D-01-9.313225746155D-10 0.000000000000D+00
    1.634157714844D+04 4.762229919434D-01-9.313225746155D-10-3.000000000000D+00
   -3.471753906250D+03 3.571444511414D+00 9.313225746155D-10 0.000000000000D+00
 6 22  3 24  2 45  0.0-3.926455974579D-05-1.818989403546D-12 1.035000000000D+04
    1.059711621094D+04 4.506654739380D-01 0.000000000000D+00 0.000000000000D+00
    1.631826757812D+04 2.214388847351D+00-0.000000000000D+00-4.000000000000D+00
    1.647838867188D+04-2.483860969543D+00-2.793967723846D-09 0.000000000000D+00
19 22  3 24  3 15  0.0-1.826994121075D-04-9.094947017729D-13 1.080000000000D+04
   -1.202706542969D+04-1.108855247498D+00 0.000000000000D+00 0.000000000000D+00
    1.870308593750D+04 1.325555801392D+00-0.000000000000D+00 3.000000000000D+00
   -1.249498388672D+04 3.051733016968D+00 9.313225746155D-10 0.000000000000D+00
 5 22  3 24  3 15  0.0 8.991546928883D-05 9.094947017729D-13 1.080000000000D+04
    2.232653320312D+03-1.236495971680D-01 1.862645149231D-09 0.000000000000D+00
    2.398501513672D+04-1.151849746704D+00-0.000000000000D+00 1.000000000000D+00
   -8.340607421875D+03-3.340962409973D+00-0.000000000000D+00 0.000000000000D+00
 4 22  3 24  3 15  0.0 1.333337277174D-04 9.094947017729D-13 1.080000000000D+04
   -6.663337402344D+03-6.561212539673D-01 1.862645149231D-09 0.000000000000D+00
    1.301510644531D+04-2.791705131531D+00 0.000000000000D+00 6.000000000000D+00
   -2.086625537109D+04-1.530129432678D+00 1.862645149231D-09 0.000000000000D+00
 6 22  3 24  3 15  0.0-3.926828503609D-05-1.818989403546D-12 1.080000000000D+04
    1.154489941406D+04 5.642261505127D-01 0.000000000000D+00 0.000000000000D+00
    1.965206835938D+04 1.466049194336D+00-0.000000000000D+00-4.000000000000D+00
    1.142741064453D+04-3.091868400574D+00-2.793967723846D-09 0.000000000000D+00
18 22  3 24  3 15  0.0 1.112725585699D-04 0.000000000000D+00 1.080000000000D+04
   -1.901138525391D+04 4.599170684814D-01-1.862645149231D-09 0.000000000000D+00
    1.669372363281D+04-1.176862716675D-01-9.313225746155D-10-3.000000000000D+00
    3.008211914062D+03 3.581582069397D+00 0.000000000000D+00 0.000000000000D+00
19 22  3 24  3 45  0.0-1.827022060752D-04-9.094947017729D-13 1.260000000000D+04
   -1.336062939453D+04-3.860578536987D-01-9.313225746155D-10 0.000000000000D+00
    2.070364453125D+04 8.542957305908D-01-0.000000000000D+00 3.000000000000D+00
   -6.589667480469D+03 3.467116355896D+00 9.313225746155D-10 0.000000000000D+00
 5 22  3 24  3 45  0.0 8.991640061140D-05 0.000000000000D+00 1.260000000000D+04
    1.616793457031D+03-5.868949890137D-01 1.862645149231D-09 0.000000000000D+00
    2.127014257812D+04-1.829063415527D+00-0.000000000000D+00 1.000000000000D+00
   -1.395335986328D+04-2.854835510254D+00 0.000000000000D+00 0.000000000000D+00
 4 22  3 24  3 45  0.0 1.333365216851D-04 9.094947017729D-13 1.260000000000D+04
   -8.302002441406D+03-1.160367965698D+00 9.313225746155D-10 0.000000000000D+00
    7.841215332031D+03-2.905731201172D+00 0.000000000000D+00 6.000000000000D+00
   -2.277547753906D+04-5.773944854736D-01 2.793967723846D-09 0.000000000000D+00
 6 22  3 24  3 45  0.0-3.927201032639D-05-1.818989403546D-12 1.260000000000D+04
    1.248138818359D+04 4.343700408936D-01 9.313225746155D-10 0.000000000000D+00
    2.154361230469D+04 6.307001113892D-01-0.000000000000D+00-4.000000000000D+00
    5.491630859375D+03-3.460557937622D+00-1.862645149231D-09 0.000000000000D+00
18 22  3 24  3 45  0.0 1.112744212151D-04 9.094947017729D-13 1.260000000000D+04
   -1.770053759766D+04 9.564037322998D-01-2.793967723846D-09 0.000000000000D+00
    1.582695703125D+04-8.622007369995D-01-9.313225746155D-10-3.000000000000D+00
    9.254801269531D+03 3.313887596130D+00 0.000000000000D+00 0.000000000000D+00
20 22  3 24  3 45  0.0-6.728805601597D-05-9.094947017729D-13 1.302000000000D+04
    1.244141601562D+03-1.823925018311D+00 1.862645149231D-09 0.000000000000D+00
    1.347123193359D+04 2.342721939087D+00 0.000000000000D+00 2.000000000000D+00
   -2.160568505859D+04 1.359546661377D+00 9.313225746155D-10 0.000000000000D+00
19 22  3 24  4 15  0.0-1.827050000429D-04-9.094947017729D-13 1.440000000000D+04
   -1.349584619141D+04 2.060012817383D-01-9.313225746155D-10 0.000000000000D+00
    2.164247021484D+04 1.575698852539D-01-0.000000000000D+00 3.000000000000D+00
   -1.746689453125D+02 3.614357948303D+00 9.313225746155D-10 0.000000000000D+00
 5 22  3 24  4 15  0.0 8.991733193398D-05 0.000000000000D+00 1.440000000000D+04
    5.312792968750D+01-1.160534858704D+00 1.862645149231D-09 0.000000000000D+00
    1.755002294922D+04-2.258249282837D+00-0.000000000000D+00 1.000000000000D+00
   -1.848492822266D+04-2.147479057312D+00 9.313225746155D-10 0.000000000000D+00
 6 22  3 24  4 15  0.0-3.927666693926D-05-1.818989403546D-12 1.440000000000D+04
    1.296178173828D+04 6.126976013184D-02 1.862645149231D-09 0.000000000000D+00
    2.193959277344D+04-1.765651702881D-01-9.313225746155D-10-4.000000000000D+00
   -8.693989257812D+02-3.561288833618D+00-9.313225746155D-10 0.000000000000D+00
18 22  3 24  4 15  0.0 1.112762838602D-04 9.094947017729D-13 1.440000000000D+04
   -1.572597460938D+04 1.191710472107D+00-2.793967723846D-09 0.000000000000D+00
    1.356343066406D+04-1.650286674500D+00-0.000000000000D+00-3.000000000000D+00
    1.478383544922D+04 2.789580345154D+00 0.000000000000D+00 0.000000000000D+00
20 22  3 24  4 15  0.0-6.728991866112D-05-9.094947017729D-13 1.440000000000D+04
   -1.496603515625D+03-1.211408615112D+00 1.862645149231D-09 0.000000000000D+00
    1.762046923828D+04 2.217189788818D+00-0.000000000000D+00 2.000000000000D+00
   -1.835326562500D+04 2.230838775635D+00 9.313225746155D-10 0.000000000000D+00
 7 22  3 24  4 15  0.0 3.302469849586D-05 0.000000000000D+00 1.602000000000D+04
    1.582648437500D+04 1.153651237488D+00 0.000000000000D+00 0.000000000000D+00
    1.284754980469D+04 1.752591133118D+00-9.313225746155D-10 5.000000000000D+00
    1.534639306641D+04-2.668571472168D+00-2.793967723846D-09 0.000000000000D+00
19 22  3 24  4 45  0.0-1.827068626881D-04-9.094947017729D-13 1.620000000000D+04
   -1.274859765625D+04 5.834503173828D-01-1.862645149231D-09 0.000000000000D+00
    2.118784423828D+04-6.767158508301D-01-0.000000000000D+00 3.000000000000D+00
    6.253843261719D+03 3.482032775879D+00 0.000000000000D+00 0.000000000000D+00
 5 22  3 24  4 45  0.0 8.991826325655D-05 0.000000000000D+00 1.620000000000D+04
   -2.563978027344D+03-1.738747596741D+00 1.862645149231D-09 0.000000000000D+00
    1.331504443359D+04-2.398013114929D+00-0.000000000000D+00 1.000000000000D+00
   -2.158424755859D+04-1.273831367493D+00 1.862645149231D-09 0.000000000000D+00
 6 22  3 24  4 45  0.0-3.928039222956D-05-1.818989403546D-12 1.620000000000D+04
    1.258186962891D+04-5.107145309448D-01 1.862645149231D-09 0.000000000000D+00
    2.098986328125D+04-8.482027053833D-01-9.313225746155D-10-4.000000000000D+00
   -7.163129882812D+03-3.386281013489D+00-9.313225746155D-10 0.000000000000D+00
 7 22  3 24  4 45  0.0 3.302562981844D-05 0.000000000000D+00 1.620000000000D+04
    1.775844628906D+04 9.485807418823D-01 0.000000000000D+00 0.000000000000D+00
    1.532314550781D+04 9.929943084717D-01-9.313225746155D-10 5.000000000000D+00
    1.001194531250D+04-3.220255851746D+00-2.793967723846D-09 0.000000000000D+00
